{"type":"FeatureCollection","features":[{"type":"Feature","geometry":{"type":"MultiPolygon","coordinates":[[[[-7.1831688,43.3926979],[-7.1771402,43.3921251],[-7.1791774,43.3880096],[-7.1753857,43.3869019],[-7.1772059,43.3823198],[-7.163266,43.3802329],[-7.1593258,43.374499],[-7.1512113,43.3797523],[-7.1365835,43.3828749],[-7.1275329,43.3725994],[-7.1315755,43.3629007],[-7.1282783,43.3556012],[-7.1327896,43.3477312],[-7.1307505,43.3302485],[-7.1256586,43.3317291],[-7.1152302,43.3261725],[-7.1125439,43.3174553],[-7.1009328,43.3038101],[-7.0904192,43.2998117],[-7.0786031,43.3004505],[-7.0739369,43.3056949],[-7.0676315,43.3069011],[-7.0597847,43.3053346],[-7.0650536,43.3002356],[-7.0666046,43.2808038],[-7.0700708,43.2797123],[-7.0723159,43.2684979],[-7.0630436,43.2446936],[-7.0555463,43.2418307],[-7.0421654,43.2284667],[-7.0340976,43.2281408],[-7.0200533,43.21324],[-7.0169355,43.2148713],[-7.0170004,43.2220358],[-7.009583,43.2228817],[-7.001449,43.2072816],[-6.99317,43.2084409],[-6.9863654,43.2021578],[-6.9710188,43.20425],[-6.9649013,43.1875447],[-6.9740499,43.1789345],[-6.9807729,43.1665455],[-6.9731201,43.1493584],[-6.9603932,43.1448361],[-6.9570779,43.1348963],[-6.9413731,43.1317171],[-6.9383838,43.1328877],[-6.9373126,43.1396573],[-6.9297979,43.1428776],[-6.9204072,43.1405242],[-6.9018975,43.1550357],[-6.8858785,43.156827],[-6.8828572,43.1606528],[-6.8873831,43.1661724],[-6.8777603,43.1732097],[-6.8746271,43.1870097],[-6.8674252,43.1900932],[-6.8698975,43.1799758],[-6.8619833,43.1820379],[-6.8563058,43.1723992],[-6.8389121,43.1661431],[-6.8367489,43.157338],[-6.8214559,43.1437059],[-6.8288241,43.123033],[-6.8556056,43.108533],[-6.8652389,43.1011035],[-6.8713481,43.0912086],[-6.8939904,43.0917987],[-6.9155493,43.0732589],[-6.9233676,43.0818529],[-6.9342008,43.0816514],[-6.9386889,43.0865119],[-6.9409363,43.0799967],[-6.9518195,43.0761904],[-6.950445,43.0681886],[-6.9573574,43.0681655],[-6.9560424,43.0635741],[-6.9665216,43.061176],[-6.9685864,43.0572147],[-6.9620312,43.052094],[-6.9648541,43.0499882],[-6.9650738,43.0347731],[-6.96917,43.0351358],[-6.9725435,43.0303826],[-6.9821742,43.041413],[-6.9864303,43.0296951],[-6.9969211,43.0277125],[-6.9971718,43.0194833],[-6.9856898,43.0144191],[-6.9837788,43.0040415],[-6.9786975,43.0040024],[-6.9750956,42.9962855],[-6.9622308,42.9906007],[-6.9641555,42.995351],[-6.9560743,42.9961443],[-6.9620752,43.0005733],[-6.9595166,43.015338],[-6.9638875,43.0193822],[-6.9603996,43.0221952],[-6.9647548,43.0266623],[-6.9580359,43.0289014],[-6.9567751,43.0365567],[-6.9468571,43.0325578],[-6.9408245,43.0115239],[-6.9225204,43.0016245],[-6.910002,42.9898964],[-6.892735,42.9879287],[-6.8808605,42.9913029],[-6.8710979,42.9885765],[-6.8357808,42.9577052],[-6.8346925,42.9412587],[-6.8418288,42.9284464],[-6.835764,42.9163433],[-6.8010426,42.9101695],[-6.7706706,42.8986238],[-6.7679451,42.8902769],[-6.7733582,42.8866768],[-6.7728488,42.8825428],[-6.7566694,42.8830575],[-6.7492239,42.8941428],[-6.7226599,42.917485],[-6.7127864,42.9150509],[-6.6899047,42.9224638],[-6.638783,42.9254625],[-6.6268223,42.9192557],[-6.6118628,42.9250103],[-6.6058031,42.917366],[-6.5793966,42.9185046],[-6.5465669,42.9121534],[-6.5413188,42.9129663],[-6.5344867,42.92218],[-6.5105764,42.9287333],[-6.4897696,42.920249],[-6.4861228,42.9290043],[-6.4785868,42.9335648],[-6.4331016,42.9397568],[-6.441611,42.9473076],[-6.4336383,42.96416],[-6.4730114,42.9677518],[-6.4719667,42.9766345],[-6.4782588,42.9801349],[-6.4781355,42.9912046],[-6.470852,42.9916781],[-6.4590283,42.9835997],[-6.4464392,42.9821701],[-6.4371976,42.9930311],[-6.4241643,42.9876779],[-6.4075767,42.9994886],[-6.4119979,43.0069705],[-6.4111068,43.0169323],[-6.3943519,43.0166118],[-6.3908221,43.0258198],[-6.3970473,43.0383217],[-6.3735461,43.0411068],[-6.3740248,43.046252],[-6.3647469,43.0499021],[-6.3634332,43.0573061],[-6.3590877,43.0595769],[-6.3489271,43.0500066],[-6.3331562,43.0464878],[-6.3264927,43.0313299],[-6.2951665,43.0269069],[-6.2903522,43.03442],[-6.2851906,43.0363693],[-6.2701655,43.0254998],[-6.2637014,43.0160771],[-6.2388715,43.0145593],[-6.2268082,43.0089126],[-6.229842,43.0230311],[-6.2256818,43.0236411],[-6.2155598,43.0472004],[-6.1950668,43.0427056],[-6.1876499,43.0492967],[-6.1784013,43.0477984],[-6.1674079,43.0424488],[-6.1625892,43.0330107],[-6.1593197,43.0355503],[-6.1484097,43.033195],[-6.1366674,43.0209929],[-6.1203764,43.0242571],[-6.1125264,43.0294414],[-6.0959636,43.0312778],[-6.0894289,43.0416924],[-6.0949956,43.0488803],[-6.0894187,43.0571427],[-6.0921826,43.0668073],[-6.0839601,43.069912],[-6.0812883,43.0758955],[-6.0694399,43.066386],[-6.0613112,43.0648917],[-6.052136,43.0681936],[-6.0209282,43.0537855],[-5.9963264,43.0579183],[-5.9889451,43.067222],[-5.9738401,43.0653075],[-5.9734733,43.059404],[-5.9659913,43.0582099],[-5.962159,43.0529438],[-5.9696569,43.040835],[-5.9604458,43.0337187],[-5.9567714,43.0183292],[-5.9182092,43.0018235],[-5.9130465,42.9975054],[-5.9134143,42.9924413],[-5.9060272,42.9904201],[-5.8871864,42.994087],[-5.8920072,42.9876441],[-5.8891502,42.9790271],[-5.8639107,42.9813818],[-5.8503259,42.9674041],[-5.8431315,42.9642785],[-5.8243426,42.9681748],[-5.8040055,42.9626153],[-5.7904079,42.9679012],[-5.7787966,42.9667787],[-5.7603831,42.9721489],[-5.7665113,42.9860846],[-5.7594374,42.9927298],[-5.759133,42.9989248],[-5.7509009,43.0054052],[-5.7487291,43.0167329],[-5.7362205,43.0220405],[-5.7347927,43.0330403],[-5.7282629,43.0424911],[-5.7196772,43.0434677],[-5.6933491,43.0564809],[-5.6503905,43.0444341],[-5.6367043,43.0350051],[-5.6039528,43.0357887],[-5.574772,43.0321003],[-5.5697814,43.0220762],[-5.5401868,43.0183531],[-5.5269258,43.0263879],[-5.5062924,43.0285739],[-5.4938019,43.0212425],[-5.4910294,43.0295868],[-5.4815138,43.0407701],[-5.4785232,43.054909],[-5.4667821,43.0505615],[-5.4481773,43.0554094],[-5.3985682,43.047492],[-5.3904507,43.0493368],[-5.3831036,43.0872369],[-5.3697809,43.0948099],[-5.3438858,43.0940523],[-5.3384885,43.0909399],[-5.3411985,43.0842956],[-5.3263812,43.0788595],[-5.3114985,43.0841588],[-5.2821211,43.0774279],[-5.2781745,43.0832964],[-5.268217,43.0875838],[-5.2511826,43.0894937],[-5.2395577,43.0888643],[-5.2307336,43.084095],[-5.2247627,43.0873354],[-5.2214084,43.0845592],[-5.2140814,43.085443],[-5.2064978,43.092701],[-5.2012254,43.0906782],[-5.1919047,43.0939531],[-5.1886035,43.0997675],[-5.1679185,43.1024394],[-5.1620307,43.1100786],[-5.1534591,43.1109787],[-5.1478028,43.1151191],[-5.1406787,43.1029163],[-5.1017354,43.1018464],[-5.0956556,43.1077028],[-5.0993012,43.1158392],[-5.0915114,43.132349],[-5.0939932,43.142599],[-5.0866993,43.1476249],[-5.0866874,43.1533841],[-5.0784543,43.1604684],[-5.0766263,43.1789492],[-5.0594707,43.174333],[-5.0536674,43.1814302],[-5.040895,43.1846826],[-5.0316183,43.1817987],[-5.0214603,43.1835133],[-5.001953,43.1752275],[-4.9976207,43.1702612],[-4.9964135,43.1853247],[-4.9803465,43.2002869],[-4.9706067,43.201745],[-4.9630647,43.212668],[-4.9521379,43.2145867],[-4.9513862,43.2194498],[-4.9425951,43.2248862],[-4.9195326,43.2269687],[-4.9085517,43.2379671],[-4.8947894,43.2381655],[-4.8710096,43.2280161],[-4.8612955,43.2184244],[-4.8602396,43.2150484],[-4.8635102,43.2118886],[-4.8601575,43.2089776],[-4.8608237,43.2053162],[-4.8494296,43.1929846],[-4.8395525,43.1896611],[-4.8410223,43.1807792],[-4.8189728,43.1791181],[-4.8165742,43.1832973],[-4.8106054,43.1811862],[-4.7867173,43.1857755],[-4.7789942,43.1920817],[-4.7542746,43.184],[-4.7435186,43.1844345],[-4.7340154,43.1898461],[-4.7331926,43.1937408],[-4.7375956,43.1968711],[-4.7364659,43.2069392],[-4.7277587,43.2167852],[-4.7306671,43.2234413],[-4.7210105,43.2295085],[-4.7249189,43.2370614],[-4.7227951,43.2416191],[-4.7309447,43.2573358],[-4.7116176,43.2609674],[-4.7060409,43.2668676],[-4.6933915,43.2639491],[-4.6811417,43.2678937],[-4.6599413,43.2644936],[-4.6502503,43.2688209],[-4.6318833,43.2676528],[-4.6362066,43.2708056],[-4.6365859,43.2757617],[-4.6267483,43.281656],[-4.6239072,43.2883687],[-4.6075954,43.2952354],[-4.6075646,43.2986331],[-4.598681,43.2985775],[-4.5802666,43.2895923],[-4.5695141,43.2918474],[-4.5516968,43.2866931],[-4.5527852,43.2719416],[-4.5477735,43.2686868],[-4.5365892,43.2698461],[-4.5326724,43.2753194],[-4.5224255,43.27904],[-4.5185712,43.2940388],[-4.5201697,43.3146559],[-4.52703,43.327612],[-4.5229994,43.3380929],[-4.5394565,43.3439596],[-4.5367894,43.3443646],[-4.53411,43.3530989],[-4.5388087,43.3559262],[-4.5308102,43.3587889],[-4.5348085,43.3677787],[-4.5209117,43.3661515],[-4.5225482,43.3699026],[-4.5105944,43.3806142],[-4.5124017,43.3933405],[-4.533402,43.3995768],[-4.5461671,43.3995768],[-4.5488032,43.3956929],[-4.5572286,43.3977337],[-4.5575827,43.3933386],[-4.5670834,43.3918018],[-4.5761752,43.3932135],[-4.5779405,43.3981065],[-4.5818728,43.399376],[-4.6166456,43.3960217],[-4.6177472,43.3962751],[-4.6179708,43.3966318],[-4.6181702,43.3985602],[-4.627041,43.3976173],[-4.6420083,43.4026864],[-4.656353,43.4011534],[-4.6765888,43.4084001],[-4.698521,43.4065704],[-4.695952,43.4089351],[-4.6982196,43.4124932],[-4.7125932,43.4114275],[-4.7131852,43.4149901],[-4.7236431,43.4155779],[-4.7243636,43.4185609],[-4.72784,43.4159611],[-4.7347244,43.4181202],[-4.7402535,43.415119],[-4.7422083,43.4182952],[-4.7443921,43.4168432],[-4.7482538,43.4189234],[-4.7483343,43.4196394],[-4.7470217,43.4199244],[-4.7474127,43.4204757],[-4.7541125,43.4195532],[-4.7466637,43.4215697],[-4.7648013,43.4259107],[-4.7659887,43.4292654],[-4.7856148,43.431719],[-4.7839128,43.4295719],[-4.7855465,43.4263071],[-4.7866657,43.4320613],[-4.8080957,43.4315338],[-4.8078811,43.4345742],[-4.8153102,43.4360438],[-4.8129255,43.4395574],[-4.8228252,43.4356285],[-4.8329609,43.4398208],[-4.8334533,43.4369771],[-4.8356473,43.4351952],[-4.8320749,43.4335255],[-4.8369613,43.43335],[-4.8347159,43.440198],[-4.8393434,43.4414284],[-4.8390042,43.4464529],[-4.8512409,43.4430615],[-4.8543486,43.4462072],[-4.8606404,43.4443351],[-4.8631077,43.4458974],[-4.8628765,43.4437888],[-4.8745384,43.4416227],[-4.8841359,43.4483598],[-4.8970977,43.4484544],[-4.8999294,43.4493591],[-4.8967804,43.4507437],[-4.9047038,43.4518056],[-4.9045382,43.4538354],[-4.9096927,43.4521631],[-4.9163214,43.4550004],[-4.9162364,43.4572961],[-4.9248821,43.457536],[-4.9287823,43.4595665],[-4.9262364,43.4623839],[-4.9365563,43.4568533],[-4.9364363,43.4596477],[-4.9447667,43.4588001],[-4.9425085,43.4607264],[-4.9554957,43.4593531],[-4.9552693,43.461439],[-4.9731251,43.46227],[-4.9812937,43.4572926],[-4.98502,43.4615546],[-5.0085975,43.4583022],[-5.0225154,43.4615293],[-5.0364727,43.4604604],[-5.0552508,43.4641797],[-5.0572625,43.4691632],[-5.0732245,43.4666425],[-5.0758196,43.4681004],[-5.0746859,43.4712762],[-5.0864297,43.476143],[-5.1147637,43.4763541],[-5.1230517,43.4846762],[-5.175023,43.4746282],[-5.1897185,43.4761632],[-5.1907936,43.4786502],[-5.1953528,43.4753143],[-5.2158971,43.4744064],[-5.2246948,43.4794358],[-5.2242514,43.4843992],[-5.2431822,43.4937557],[-5.2498618,43.5005809],[-5.2623908,43.5012564],[-5.270902,43.5088448],[-5.2658911,43.5153096],[-5.2680613,43.515673],[-5.2643126,43.5152188],[-5.2654682,43.5185148],[-5.2956376,43.5350492],[-5.3086915,43.5321753],[-5.3467204,43.5348121],[-5.3537872,43.5305789],[-5.3658718,43.5331533],[-5.3722511,43.539661],[-5.3747912,43.5351728],[-5.3854594,43.5339579],[-5.3892101,43.5407295],[-5.3991716,43.5439629],[-5.3972048,43.5499165],[-5.4131781,43.5548553],[-5.4320421,43.549694],[-5.4403274,43.5525685],[-5.4724719,43.5513493],[-5.4943104,43.543924],[-5.4993739,43.5496068],[-5.5076777,43.5483064],[-5.5177802,43.5516545],[-5.5293508,43.5448572],[-5.547076,43.5498084],[-5.5972861,43.5476364],[-5.6096956,43.5498931],[-5.6135074,43.5562432],[-5.6193303,43.5574904],[-5.6286987,43.5500062],[-5.6387542,43.5518234],[-5.6381064,43.5488823],[-5.6478128,43.5418101],[-5.6598323,43.5431549],[-5.6595907,43.5476688],[-5.6645727,43.5497673],[-5.6703398,43.5465475],[-5.6667855,43.5473952],[-5.6644449,43.5454461],[-5.6663135,43.5434335],[-5.6675977,43.5455562],[-5.6678457,43.5426172],[-5.668742,43.5455027],[-5.6719849,43.542923],[-5.6786995,43.5444675],[-5.6758943,43.5424767],[-5.6791794,43.541235],[-5.6812855,43.5429064],[-5.6793636,43.5454803],[-5.692717,43.54403],[-5.6946152,43.5459506],[-5.6885056,43.5521835],[-5.6871006,43.5495105],[-5.6803181,43.5561192],[-5.6862547,43.5605598],[-5.6847035,43.5575208],[-5.6955947,43.5501306],[-5.6984493,43.5578551],[-5.6926638,43.5552258],[-5.6990034,43.558615],[-5.6958723,43.5615244],[-5.6996557,43.5609612],[-5.7009553,43.5630265],[-5.697056,43.5645554],[-5.7013775,43.5678019],[-5.6961225,43.566789],[-5.691622,43.5610572],[-5.6930567,43.5651336],[-5.6819357,43.5680333],[-5.6802869,43.5650624],[-5.682274,43.5692777],[-5.6760638,43.5710128],[-5.6873783,43.5692894],[-5.6930104,43.5784869],[-5.6771468,43.5824808],[-5.675638,43.5793894],[-5.6746287,43.579652],[-5.677375,43.5845617],[-5.6756334,43.5867678],[-5.6942967,43.5822354],[-5.6968405,43.5794654],[-5.6959499,43.5725934],[-5.6994825,43.5725204],[-5.6979248,43.5751253],[-5.7005596,43.5714549],[-5.7093664,43.5725805],[-5.7115861,43.5684187],[-5.7353574,43.5731144],[-5.7389243,43.5789029],[-5.7443696,43.5781394],[-5.7432645,43.5797871],[-5.7443628,43.5809331],[-5.7435034,43.5820984],[-5.7484211,43.5849089],[-5.7516813,43.5823791],[-5.7556138,43.5831754],[-5.7560255,43.5817276],[-5.7554507,43.5848244],[-5.7610508,43.5876356],[-5.7586408,43.588338],[-5.7627779,43.5891572],[-5.7576758,43.5891111],[-5.761504,43.5917805],[-5.7599083,43.594968],[-5.7662081,43.5933402],[-5.7673587,43.5989173],[-5.7715725,43.6005118],[-5.7676376,43.6046851],[-5.7709953,43.608121],[-5.7756602,43.605787],[-5.7777745,43.6099514],[-5.7842433,43.6091314],[-5.7854098,43.6127855],[-5.7909848,43.6136765],[-5.7859177,43.6170682],[-5.7867117,43.6196629],[-5.7828425,43.6192539],[-5.7855306,43.6211163],[-5.7824053,43.6225649],[-5.7808535,43.6198037],[-5.7833743,43.6314807],[-5.7860028,43.6287937],[-5.7943499,43.629547],[-5.7945376,43.6362688],[-5.7953135,43.6338918],[-5.7967864,43.6362686],[-5.8049285,43.6355496],[-5.8107802,43.632175],[-5.8112162,43.6423584],[-5.8133741,43.6393352],[-5.821487,43.6445238],[-5.8252131,43.6395334],[-5.8301658,43.639776],[-5.8356375,43.6435727],[-5.8354804,43.6517377],[-5.8409601,43.6532905],[-5.8419386,43.6592512],[-5.857866,43.6558891],[-5.8615519,43.6456085],[-5.8594606,43.6443816],[-5.857596,43.6405464],[-5.8587442,43.6364765],[-5.8670795,43.6354428],[-5.8668374,43.6307743],[-5.87679,43.6298422],[-5.8760423,43.6267926],[-5.8798032,43.6241188],[-5.8890139,43.6227947],[-5.8959888,43.6267414],[-5.8984392,43.6239752],[-5.9004034,43.6279286],[-5.9058839,43.6229795],[-5.9137581,43.6244256],[-5.9161125,43.6199334],[-5.9108397,43.6164585],[-5.9158585,43.6117519],[-5.9134307,43.6084394],[-5.9273066,43.5988077],[-5.9335804,43.601382],[-5.9479876,43.5971774],[-5.9389467,43.5948248],[-5.9416669,43.5916932],[-5.9464791,43.5926875],[-5.9410504,43.5913333],[-5.9415633,43.5882691],[-5.9519873,43.5807176],[-5.9636528,43.577494],[-5.9742942,43.5819308],[-5.9805841,43.5769604],[-5.9852807,43.5801003],[-5.989414,43.577201],[-5.9915785,43.5794728],[-5.9959795,43.5721189],[-5.9989063,43.5742705],[-5.9981815,43.5783921],[-6.0064952,43.5776424],[-6.0175036,43.5825765],[-6.0166664,43.5876579],[-6.028197,43.5861077],[-6.0369328,43.5843525],[-6.035217,43.5796287],[-6.0641935,43.565256],[-6.0757106,43.5645243],[-6.0757304,43.5667685],[-6.0776502,43.5646519],[-6.0773154,43.5703621],[-6.078251,43.5647526],[-6.0817392,43.5661236],[-6.0841905,43.5627002],[-6.0893353,43.5625061],[-6.092121,43.5580077],[-6.1033994,43.5599698],[-6.1136472,43.5547655],[-6.1229733,43.5560662],[-6.1237275,43.5612761],[-6.1330342,43.5583996],[-6.1356974,43.5646725],[-6.1472921,43.5636377],[-6.1525452,43.5674733],[-6.1509177,43.5693558],[-6.1482569,43.5658497],[-6.1476138,43.565495],[-6.1464881,43.5659243],[-6.1510893,43.5696815],[-6.1581989,43.5661454],[-6.169519,43.5695057],[-6.1860392,43.5629173],[-6.1919541,43.5676907],[-6.1882257,43.5796911],[-6.190879,43.5784087],[-6.1938243,43.5804634],[-6.19515,43.575173],[-6.2032606,43.5727181],[-6.20916,43.585139],[-6.2109933,43.5812223],[-6.2193557,43.5779196],[-6.2217409,43.5826453],[-6.2235274,43.5819081],[-6.2251836,43.5828634],[-6.2267533,43.5887871],[-6.2309941,43.5878614],[-6.2445692,43.5951596],[-6.2422843,43.5885843],[-6.2562308,43.5775854],[-6.2669545,43.5781287],[-6.2842795,43.5700481],[-6.2937946,43.5693907],[-6.2947866,43.5705076],[-6.2973293,43.5684399],[-6.2953123,43.5665664],[-6.3032171,43.5630916],[-6.3193868,43.564395],[-6.320342,43.561627],[-6.331326,43.560601],[-6.355384,43.5507489],[-6.3620227,43.5535014],[-6.3708496,43.5511499],[-6.3722873,43.5540619],[-6.3681815,43.5576697],[-6.3756719,43.5551963],[-6.3962503,43.5596635],[-6.4042541,43.5560117],[-6.4162752,43.5583945],[-6.4207399,43.5535943],[-6.4289609,43.5525534],[-6.4383085,43.5554354],[-6.4455792,43.5626401],[-6.451276,43.561159],[-6.460644,43.56496],[-6.4602911,43.5691074],[-6.4698139,43.5711497],[-6.4755151,43.5633945],[-6.4753393,43.5556543],[-6.4712617,43.5518747],[-6.4739564,43.5500509],[-6.4818166,43.5532972],[-6.4884432,43.5486419],[-6.501426,43.5516166],[-6.5128069,43.5470991],[-6.5231734,43.5508658],[-6.5310796,43.5478565],[-6.5319813,43.5507299],[-6.5359846,43.5487298],[-6.5321558,43.5466953],[-6.5330572,43.5452101],[-6.5399228,43.5479196],[-6.5373518,43.5494851],[-6.5419372,43.5494273],[-6.5396034,43.5524573],[-6.5423451,43.5548035],[-6.5577515,43.5500183],[-6.554677,43.5535787],[-6.5718006,43.5574677],[-6.5969107,43.5530921],[-6.6040604,43.556437],[-6.6026479,43.5651681],[-6.6141306,43.5616129],[-6.6259279,43.5720151],[-6.6278985,43.5689633],[-6.6327729,43.5697743],[-6.6319725,43.5669923],[-6.6444556,43.5685487],[-6.6459418,43.5673364],[-6.6444235,43.5659891],[-6.6457239,43.5655123],[-6.6447356,43.5647167],[-6.645687,43.5641747],[-6.6470512,43.5679321],[-6.6651947,43.5661597],[-6.6736262,43.5598109],[-6.6813193,43.5585751],[-6.6908186,43.5592973],[-6.6909206,43.562559],[-6.6983771,43.56006],[-6.6986249,43.5633409],[-6.7086033,43.5613833],[-6.7101692,43.5634808],[-6.7233646,43.5552975],[-6.7323255,43.5606629],[-6.7331731,43.5645874],[-6.7413614,43.5603318],[-6.7420847,43.5647804],[-6.74714,43.566349],[-6.7584999,43.5611154],[-6.7644656,43.5648321],[-6.763408,43.5683634],[-6.7669188,43.5687818],[-6.7825471,43.5649678],[-6.780693,43.5596789],[-6.7844931,43.5560467],[-6.7946914,43.5577509],[-6.7994029,43.555279],[-6.803023,43.5593183],[-6.8110342,43.5543371],[-6.8178468,43.5562769],[-6.8211979,43.56321],[-6.8282505,43.5638274],[-6.8308842,43.5666842],[-6.8513591,43.5624844],[-6.8498983,43.5651895],[-6.8542747,43.5655618],[-6.8537187,43.5705893],[-6.85717,43.5677818],[-6.8655446,43.5666927],[-6.8661854,43.5704569],[-6.876664,43.5614867],[-6.8765535,43.5637948],[-6.8864125,43.5654542],[-6.8894818,43.5695556],[-6.8933752,43.5679393],[-6.8997963,43.570936],[-6.9101756,43.5662004],[-6.9142488,43.5727373],[-6.92413,43.5707263],[-6.92516,43.57504],[-6.93254,43.56954],[-6.9389741,43.5700901],[-6.940433,43.5725472],[-6.9427305,43.572357],[-6.9438347,43.5744376],[-6.9443472,43.5716517],[-6.9489902,43.5717305],[-6.9473885,43.5647986],[-6.9537185,43.56851],[-6.9561861,43.5626373],[-6.9640602,43.5599067],[-6.970966,43.5616359],[-6.9760855,43.5543888],[-6.9810878,43.5592861],[-6.9962154,43.5532296],[-7.0044961,43.5576739],[-7.00584,43.55495],[-7.01735,43.55598],[-7.02335,43.55959],[-7.022398,43.5562873],[-7.02621,43.55791],[-7.0293261,43.5564448],[-7.0226835,43.5539683],[-7.0213973,43.548848],[-7.0322788,43.5440947],[-7.0301853,43.5349854],[-7.0395066,43.5254096],[-7.0471788,43.5089861],[-7.0484688,43.5010986],[-7.0449263,43.4952911],[-7.0485576,43.4882029],[-7.0482704,43.4770761],[-7.0574324,43.4716405],[-7.0620193,43.4742328],[-7.0703749,43.4703229],[-7.072309,43.4655794],[-7.07883,43.465121],[-7.083669,43.4581634],[-7.0902249,43.4552717],[-7.0917282,43.4476975],[-7.086247,43.4435809],[-7.090337,43.44487],[-7.1003599,43.4409043],[-7.0977944,43.4328142],[-7.1062352,43.432714],[-7.1015685,43.4294646],[-7.1026864,43.4270059],[-7.1102896,43.4285037],[-7.1129805,43.4247448],[-7.127717,43.4233101],[-7.1429388,43.4311857],[-7.1521787,43.4287897],[-7.1621331,43.4321447],[-7.1719288,43.4306825],[-7.1745507,43.4241938],[-7.1699374,43.4219899],[-7.1756096,43.4141716],[-7.1691548,43.4085915],[-7.1688207,43.4045468],[-7.1736177,43.4058035],[-7.173069,43.4004358],[-7.1831688,43.3926979]]],[[[-6.9877991,43.5592429],[-6.9880793,43.5577733],[-6.9865123,43.5588324],[-6.9877991,43.5592429]]],[[[-6.9889033,43.56239],[-6.9888309,43.5622326],[-6.9887531,43.5623551],[-6.9889033,43.56239]]],[[[-6.9884446,43.561943],[-6.9883481,43.5618381],[-6.9883105,43.561978],[-6.9884446,43.561943]]],[[[-6.9872533,43.5610065],[-6.986109,43.5598135],[-6.9847183,43.561598],[-6.9872533,43.5610065]]],[[[-6.9857643,43.5619658],[-6.985869,43.5616506],[-6.9855313,43.5619391],[-6.9857643,43.5619658]]],[[[-6.9495894,43.5761199],[-6.9494097,43.5755661],[-6.9489403,43.5760538],[-6.9495894,43.5761199]]],[[[-6.9465123,43.5738523],[-6.9456166,43.5739446],[-6.9451515,43.5747679],[-6.9463194,43.5748953],[-6.9465123,43.5738523]]],[[[-6.9470259,43.5747582],[-6.9469475,43.5738542],[-6.9467616,43.5744688],[-6.9470259,43.5747582]]],[[[-6.9415807,43.5730899],[-6.9417994,43.5724616],[-6.9411914,43.5729528],[-6.9415807,43.5730899]]],[[[-6.8945001,43.569439],[-6.894702,43.569053],[-6.8943623,43.5694097],[-6.8945001,43.569439]]],[[[-6.8899566,43.5716272],[-6.8903866,43.5707207],[-6.8897259,43.571534],[-6.8899566,43.5716272]]],[[[-6.8765563,43.5644794],[-6.8762586,43.5637875],[-6.8759501,43.564079],[-6.8765563,43.5644794]]],[[[-6.8743182,43.5673266],[-6.8737451,43.5660496],[-6.8733611,43.5669406],[-6.8743182,43.5673266]]],[[[-6.87306,43.566732],[-6.872382,43.56595],[-6.872708,43.566726],[-6.87306,43.566732]]],[[[-6.870793,43.569064],[-6.870747,43.5681544],[-6.8703835,43.5690763],[-6.870793,43.569064]]],[[[-6.8564381,43.5690558],[-6.8563788,43.5686392],[-6.8561832,43.5688582],[-6.8564381,43.5690558]]],[[[-6.8261464,43.5653795],[-6.8260956,43.5642779],[-6.8257711,43.565225],[-6.8261464,43.5653795]]],[[[-6.7521501,43.5675365],[-6.7523325,43.5647048],[-6.7517477,43.5673596],[-6.7521501,43.5675365]]],[[[-6.462262,43.5698329],[-6.4623751,43.569615],[-6.4621894,43.5697495],[-6.462262,43.5698329]]],[[[-6.4615172,43.5705189],[-6.4618788,43.5697647],[-6.4613986,43.5699644],[-6.4615172,43.5705189]]],[[[-6.3148778,43.5655966],[-6.3149334,43.5648898],[-6.3143371,43.565267],[-6.3148778,43.5655966]]],[[[-6.3096015,43.5672315],[-6.3095398,43.5671103],[-6.3092593,43.5675577],[-6.3096015,43.5672315]]],[[[-6.3095906,43.5657282],[-6.3098366,43.5654465],[-6.309416,43.5657148],[-6.3095906,43.5657282]]],[[[-6.2972918,43.5704105],[-6.2975385,43.5690112],[-6.2963229,43.5705213],[-6.2972918,43.5704105]]],[[[-6.2975707,43.5707719],[-6.2980535,43.5701501],[-6.2972167,43.5708069],[-6.2975707,43.5707719]]],[[[-6.2950282,43.5729298],[-6.295105,43.5724091],[-6.29477,43.5725709],[-6.2950282,43.5729298]]],[[[-6.2934035,43.57264],[-6.2931173,43.5721753],[-6.2928904,43.5725757],[-6.2934035,43.57264]]],[[[-6.2937929,43.5704183],[-6.2933151,43.5700454],[-6.2931867,43.5700919],[-6.2937929,43.5704183]]],[[[-6.293688,43.5718347],[-6.2933321,43.5717336],[-6.2931821,43.5719788],[-6.293688,43.5718347]]],[[[-6.2930774,43.5717993],[-6.2928227,43.5716047],[-6.2926692,43.5718448],[-6.2930774,43.5717993]]],[[[-6.2886748,43.5714612],[-6.2888475,43.5710322],[-6.2886403,43.5712646],[-6.2886748,43.5714612]]],[[[-6.2876756,43.572744],[-6.288021,43.5725581],[-6.2878335,43.572365],[-6.2876756,43.572744]]],[[[-6.2830964,43.5719883],[-6.283262,43.571764],[-6.2830381,43.571816],[-6.2830964,43.5719883]]],[[[-6.2812671,43.5741626],[-6.2816309,43.5730558],[-6.2807824,43.5733304],[-6.2812671,43.5741626]]],[[[-6.2489639,43.5836327],[-6.249034,43.5833339],[-6.2486959,43.5837168],[-6.2489639,43.5836327]]],[[[-6.2470334,43.5875654],[-6.246959,43.587473],[-6.2469625,43.5875372],[-6.2470334,43.5875654]]],[[[-6.2465267,43.5881532],[-6.2463459,43.5881199],[-6.2462892,43.5885049],[-6.2465267,43.5881532]]],[[[-6.246229,43.5878298],[-6.246066,43.5872626],[-6.2459703,43.5878041],[-6.246229,43.5878298]]],[[[-6.246105,43.5888385],[-6.2459739,43.5887641],[-6.2459703,43.5889669],[-6.246105,43.5888385]]],[[[-6.2457111,43.5919421],[-6.2458213,43.5916321],[-6.2457691,43.5914697],[-6.2457111,43.5919421]]],[[[-6.2459916,43.5883765],[-6.2460057,43.5879556],[-6.2458853,43.5883817],[-6.2459916,43.5883765]]],[[[-6.2454033,43.5886024],[-6.2453643,43.5884587],[-6.2453395,43.5885921],[-6.2454033,43.5886024]]],[[[-6.2450295,43.5936326],[-6.2449986,43.5933225],[-6.2448837,43.5933798],[-6.2450295,43.5936326]]],[[[-6.2440084,43.5962897],[-6.2430266,43.5952195],[-6.2427795,43.595919],[-6.2440084,43.5962897]]],[[[-6.243839,43.5965101],[-6.2437362,43.5963805],[-6.2437713,43.5967769],[-6.243839,43.5965101]]],[[[-6.2377312,43.5937463],[-6.2373393,43.5932595],[-6.237394,43.593685],[-6.2377312,43.5937463]]],[[[-6.2368384,43.5937363],[-6.236855,43.5932278],[-6.2364728,43.5936127],[-6.2368384,43.5937363]]],[[[-6.2341012,43.5915931],[-6.2339928,43.5911158],[-6.233822,43.5914539],[-6.2341012,43.5915931]]],[[[-6.2327981,43.5913553],[-6.2328074,43.5910493],[-6.2326479,43.5913397],[-6.2327981,43.5913553]]],[[[-6.2321185,43.5924516],[-6.2318631,43.5914189],[-6.231434,43.5922348],[-6.2321185,43.5924516]]],[[[-6.2266843,43.5909172],[-6.2271403,43.5906333],[-6.2267564,43.5901335],[-6.2266843,43.5909172]]],[[[-6.2257215,43.586463],[-6.2256073,43.5862094],[-6.2256262,43.5864642],[-6.2257215,43.586463]]],[[[-6.2254274,43.5867394],[-6.2254067,43.5865586],[-6.2253259,43.5867097],[-6.2254274,43.5867394]]],[[[-6.2226038,43.5827601],[-6.2221836,43.582761],[-6.2220999,43.5828939],[-6.2226038,43.5827601]]],[[[-6.2087267,43.5856587],[-6.2086387,43.5849893],[-6.2086302,43.5856443],[-6.2087267,43.5856587]]],[[[-6.1930855,43.581824],[-6.1919544,43.5805803],[-6.1917247,43.5820735],[-6.1930855,43.581824]]],[[[-6.1920055,43.5803311],[-6.1918556,43.5799594],[-6.1916988,43.5803333],[-6.1920055,43.5803311]]],[[[-6.1909633,43.5825199],[-6.191231,43.5821551],[-6.1907414,43.5822392],[-6.1909633,43.5825199]]],[[[-6.1912652,43.5797541],[-6.1910667,43.5792722],[-6.1910828,43.5796958],[-6.1912652,43.5797541]]],[[[-6.1547689,43.5698917],[-6.1548092,43.569101],[-6.154302,43.5695688],[-6.1547689,43.5698917]]],[[[-6.150177,43.5709759],[-6.1501502,43.570597],[-6.1497532,43.5708302],[-6.150177,43.5709759]]],[[[-6.1500745,43.5705521],[-6.1500718,43.570317],[-6.1498894,43.5704686],[-6.1500745,43.5705521]]],[[[-6.149529,43.5715992],[-6.1495259,43.5713743],[-6.1494583,43.5714344],[-6.149529,43.5715992]]],[[[-6.1379309,43.5651848],[-6.1380643,43.5647665],[-6.1376688,43.5649526],[-6.1379309,43.5651848]]],[[[-6.1068949,43.5634495],[-6.1070541,43.5630408],[-6.1069492,43.5630271],[-6.1068949,43.5634495]]],[[[-6.0510386,43.574917],[-6.0510463,43.5746852],[-6.0509106,43.5746866],[-6.0510386,43.574917]]],[[[-6.0334952,43.5912637],[-6.0323528,43.5888647],[-6.0305078,43.591782],[-6.0334952,43.5912637]]],[[[-6.0326607,43.5925304],[-6.0325299,43.5917838],[-6.0322684,43.5926251],[-6.0326607,43.5925304]]],[[[-6.0209447,43.5876362],[-6.0207301,43.5876012],[-6.020494,43.5878927],[-6.0209447,43.5876362]]],[[[-6.0201635,43.5882381],[-6.0202427,43.58796],[-6.0199746,43.5882006],[-6.0201635,43.5882381]]],[[[-5.9667321,43.5812483],[-5.9665318,43.5807347],[-5.9664508,43.5812462],[-5.9667321,43.5812483]]],[[[-5.9005549,43.6281952],[-5.9008429,43.6280652],[-5.9005952,43.6279733],[-5.9005549,43.6281952]]],[[[-5.890331,43.6289262],[-5.8901871,43.6287957],[-5.8901534,43.629004],[-5.890331,43.6289262]]],[[[-5.8807604,43.6313457],[-5.880795,43.6311309],[-5.8805472,43.6312852],[-5.8807604,43.6313457]]],[[[-5.8801898,43.6309786],[-5.8800889,43.6306282],[-5.8798699,43.6308827],[-5.8801898,43.6309786]]],[[[-5.8779247,43.6289674],[-5.8777083,43.6287684],[-5.8777414,43.6290282],[-5.8779247,43.6289674]]],[[[-5.8772242,43.6290038],[-5.8769647,43.6290275],[-5.8771858,43.6296461],[-5.8772242,43.6290038]]],[[[-5.8671545,43.6625189],[-5.8671264,43.6623227],[-5.8670929,43.6624896],[-5.8671545,43.6625189]]],[[[-5.8669554,43.6630905],[-5.8669665,43.6629351],[-5.866909,43.6630336],[-5.8669554,43.6630905]]],[[[-5.8668919,43.6636808],[-5.8668626,43.6635567],[-5.8668344,43.6636202],[-5.8668919,43.6636808]]],[[[-5.8666691,43.6649889],[-5.8665683,43.6647588],[-5.8665198,43.6649805],[-5.8666691,43.6649889]]],[[[-5.8657896,43.6637123],[-5.865634,43.6629284],[-5.8651727,43.6635493],[-5.8657896,43.6637123]]],[[[-5.8655673,43.6644816],[-5.86553,43.6643607],[-5.8654788,43.6644332],[-5.8655673,43.6644816]]],[[[-5.8650765,43.6646867],[-5.864997,43.6641585],[-5.8647919,43.6647082],[-5.8650765,43.6646867]]],[[[-5.8652235,43.663988],[-5.8651288,43.6638717],[-5.8650914,43.6639338],[-5.8652235,43.663988]]],[[[-5.8632301,43.6644285],[-5.8643942,43.6618461],[-5.863571,43.661859],[-5.8632301,43.6644285]]],[[[-5.8647496,43.6639689],[-5.8647094,43.663742],[-5.8646655,43.6640934],[-5.8647496,43.6639689]]],[[[-5.8644366,43.6640665],[-5.8642901,43.663831],[-5.8643455,43.6640618],[-5.8644366,43.6640665]]],[[[-5.862241,43.6493034],[-5.8621796,43.6491768],[-5.8620241,43.6493453],[-5.862241,43.6493034]]],[[[-5.8613423,43.6664704],[-5.8612402,43.6660668],[-5.8609889,43.6664318],[-5.8613423,43.6664704]]],[[[-5.860787,43.6435127],[-5.8607585,43.6432435],[-5.8605976,43.6432586],[-5.860787,43.6435127]]],[[[-5.8603245,43.6436235],[-5.8604298,43.6433411],[-5.8598442,43.6435645],[-5.8603245,43.6436235]]],[[[-5.8557645,43.6582856],[-5.8559638,43.6570102],[-5.8554717,43.6567995],[-5.8557645,43.6582856]]],[[[-5.8412011,43.6605331],[-5.841491,43.6592055],[-5.8401972,43.6603186],[-5.8412011,43.6605331]]],[[[-5.8393858,43.6623421],[-5.8393354,43.6621731],[-5.8391024,43.6624806],[-5.8393858,43.6623421]]],[[[-5.8380505,43.664645],[-5.8381079,43.6642147],[-5.8378,43.6646922],[-5.8380505,43.664645]]],[[[-5.8374588,43.6646578],[-5.8375231,43.6644701],[-5.8373136,43.6645755],[-5.8374588,43.6646578]]],[[[-5.8347228,43.6535091],[-5.8354412,43.6519843],[-5.8340488,43.6544325],[-5.8347228,43.6535091]]],[[[-5.7891623,43.6136095],[-5.7891813,43.61344],[-5.7890468,43.6135341],[-5.7891623,43.6136095]]],[[[-5.7819902,43.6128688],[-5.781589,43.6121638],[-5.7807673,43.6122597],[-5.7819902,43.6128688]]],[[[-5.7809769,43.611985],[-5.7816724,43.6109944],[-5.7806712,43.6112859],[-5.7809769,43.611985]]],[[[-5.765423,43.6055609],[-5.7667165,43.6056578],[-5.765208,43.6050801],[-5.765423,43.6055609]]],[[[-5.7532311,43.5835098],[-5.7529516,43.5831209],[-5.752818,43.5832378],[-5.7532311,43.5835098]]],[[[-5.7521104,43.5832456],[-5.7523679,43.5831174],[-5.7522821,43.5827793],[-5.7521104,43.5832456]]],[[[-5.7433548,43.5817135],[-5.743497,43.5810134],[-5.7428912,43.5814833],[-5.7433548,43.5817135]]],[[[-5.6981321,43.5755188],[-5.6981334,43.5752127],[-5.697826,43.5754278],[-5.6981321,43.5755188]]],[[[-5.6715954,43.5472246],[-5.671661,43.5471325],[-5.6715626,43.5471533],[-5.6715954,43.5472246]]],[[[-5.6165992,43.5584071],[-5.617656,43.5581774],[-5.6162721,43.5575537],[-5.6165992,43.5584071]]],[[[-5.6088476,43.5562423],[-5.6089795,43.5560512],[-5.6088089,43.5560484],[-5.6088476,43.5562423]]],[[[-5.6084366,43.5562507],[-5.6085917,43.55604],[-5.6085374,43.5560624],[-5.6084366,43.5562507]]],[[[-5.6052487,43.5501152],[-5.605398,43.5497972],[-5.6051497,43.5500446],[-5.6052487,43.5501152]]],[[[-5.0131586,43.4602007],[-5.0131506,43.4600664],[-5.0130942,43.4601092],[-5.0131586,43.4602007]]],[[[-5.0130636,43.459869],[-5.0129397,43.4596204],[-5.0127078,43.4597672],[-5.0130636,43.459869]]],[[[-5.0130326,43.4606602],[-5.0128931,43.4603876],[-5.0127053,43.4604849],[-5.0130326,43.4606602]]],[[[-4.9497043,43.4619575],[-4.949482,43.4612063],[-4.9488704,43.4619633],[-4.9497043,43.4619575]]],[[[-4.9135591,43.454703],[-4.9133964,43.4544392],[-4.9133248,43.4546539],[-4.9135591,43.454703]]],[[[-4.9131645,43.454413],[-4.9131535,43.4542786],[-4.9130619,43.4543066],[-4.9131645,43.454413]]],[[[-4.9007021,43.4519471],[-4.9007749,43.4518275],[-4.9003427,43.4518925],[-4.9007021,43.4519471]]],[[[-4.8992233,43.4519699],[-4.8999117,43.4517914],[-4.8992145,43.4519232],[-4.8992233,43.4519699]]],[[[-4.8963843,43.4512303],[-4.8963477,43.4508832],[-4.8961012,43.4511392],[-4.8963843,43.4512303]]],[[[-4.8933976,43.4496202],[-4.8931725,43.4493202],[-4.8931993,43.4495949],[-4.8933976,43.4496202]]],[[[-4.876287,43.4440498],[-4.8762576,43.4438734],[-4.8761199,43.4440345],[-4.876287,43.4440498]]],[[[-4.8612716,43.4460772],[-4.8612844,43.4457353],[-4.8611096,43.4458761],[-4.8612716,43.4460772]]],[[[-4.8596703,43.446558],[-4.8596578,43.4458037],[-4.8588442,43.4460037],[-4.8596703,43.446558]]],[[[-4.8484864,43.4462506],[-4.8485801,43.4456947],[-4.8476951,43.4459298],[-4.8484864,43.4462506]]],[[[-4.8466727,43.4461507],[-4.8463818,43.4457231],[-4.845963,43.4458513],[-4.8466727,43.4461507]]],[[[-4.8305573,43.4406181],[-4.8304428,43.4401509],[-4.8300798,43.4403781],[-4.8305573,43.4406181]]],[[[-4.8264605,43.4389372],[-4.8266301,43.4376611],[-4.8249939,43.4384532],[-4.8264605,43.4389372]]],[[[-4.8250432,43.4408222],[-4.8253211,43.4402661],[-4.824602,43.4405535],[-4.8250432,43.4408222]]],[[[-4.8247393,43.4403365],[-4.8249818,43.4399933],[-4.8243879,43.4400373],[-4.8247393,43.4403365]]],[[[-4.8224243,43.4387172],[-4.8231273,43.4371066],[-4.8219421,43.4380481],[-4.8224243,43.4387172]]],[[[-4.8190675,43.439972],[-4.8193302,43.4392335],[-4.8188824,43.4392601],[-4.8190675,43.439972]]],[[[-4.8117714,43.4369908],[-4.8117448,43.4367425],[-4.8115862,43.4368825],[-4.8117714,43.4369908]]],[[[-4.8111327,43.4388027],[-4.8091857,43.4370068],[-4.8081077,43.4380012],[-4.8111327,43.4388027]]],[[[-4.8030993,43.435928],[-4.8030993,43.4352512],[-4.8029972,43.4353995],[-4.8030993,43.435928]]],[[[-4.7964341,43.4342776],[-4.7978386,43.434018],[-4.7961915,43.4333689],[-4.7964341,43.4342776]]],[[[-4.791591,43.4348543],[-4.7899092,43.4328601],[-4.7875627,43.4347513],[-4.7884567,43.4356032],[-4.791591,43.4348543]]],[[[-4.782644,43.433406],[-4.7827972,43.4329424],[-4.7823247,43.4330908],[-4.782644,43.433406]]],[[[-4.7779521,43.4330399],[-4.778136,43.4328619],[-4.7778704,43.4329509],[-4.7779521,43.4330399]]],[[[-4.7773979,43.4329231],[-4.7770787,43.4327098],[-4.7767978,43.4328953],[-4.7773979,43.4329231]]],[[[-4.7760955,43.4337854],[-4.774857,43.4328767],[-4.7748697,43.4336092],[-4.7760955,43.4337854]]],[[[-4.7758146,43.4344994],[-4.7757125,43.4341099],[-4.775572,43.4342583],[-4.7758146,43.4344994]]],[[[-4.7634721,43.4259922],[-4.7634372,43.4257774],[-4.7625471,43.4258659],[-4.7634721,43.4259922]]],[[[-4.7480154,43.4195889],[-4.7477172,43.4195171],[-4.7476918,43.4196119],[-4.7480154,43.4195889]]],[[[-4.7477505,43.4189285],[-4.7476933,43.4188445],[-4.7476519,43.4188713],[-4.7477505,43.4189285]]],[[[-4.7377072,43.4178513],[-4.7380457,43.4170043],[-4.7373755,43.4167133],[-4.7377072,43.4178513]]],[[[-4.7307583,43.4186979],[-4.7306651,43.4170847],[-4.7295848,43.4182462],[-4.7307583,43.4186979]]],[[[-4.729112,43.4177718],[-4.7296961,43.4172689],[-4.7288299,43.4174665],[-4.729112,43.4177718]]],[[[-4.7289491,43.4171141],[-4.7293687,43.4165331],[-4.728224,43.4169034],[-4.7289491,43.4171141]]],[[[-4.7091237,43.4155213],[-4.7087654,43.414875],[-4.7080009,43.415701],[-4.7091237,43.4155213]]],[[[-4.6177017,43.3964802],[-4.6175789,43.3962377],[-4.6174502,43.3963812],[-4.6177017,43.3964802]]],[[[-4.5749802,43.3986014],[-4.5752614,43.3974489],[-4.5737735,43.3981125],[-4.5747582,43.4000291],[-4.5749802,43.3986014]]],[[[-4.5762821,43.3988556],[-4.5760158,43.398746],[-4.5762393,43.3989912],[-4.5762821,43.3988556]]]]},"properties":{"province":"Asturias"}},{"type":"Feature","geometry":{"type":"MultiPolygon","coordinates":[[[[-4.8517354,43.1728722],[-4.8388476,43.1667378],[-4.8406548,43.1623715],[-4.8345665,43.1574627],[-4.838596,43.1470426],[-4.8438534,43.1460215],[-4.8426973,43.1333255],[-4.8513916,43.1259163],[-4.8358066,43.1162913],[-4.8328062,43.1026612],[-4.8214878,43.0993391],[-4.8169033,43.0926584],[-4.7844364,43.0836152],[-4.7664974,43.0745466],[-4.7661589,43.0556238],[-4.741765,43.0553821],[-4.7323649,43.0470303],[-4.7432966,43.0267926],[-4.7371817,43.0210155],[-4.731087,43.0222473],[-4.7236642,43.0175854],[-4.71614,43.0187714],[-4.7073416,43.0254406],[-4.6903562,43.0263771],[-4.6381314,43.0166729],[-4.6060841,43.0357674],[-4.5906069,43.0258711],[-4.5743098,43.0269249],[-4.5584487,43.0195147],[-4.5209199,43.0473767],[-4.4958515,43.0384139],[-4.4757132,43.0387023],[-4.4711497,43.0516922],[-4.4627522,43.0605346],[-4.4567627,43.057045],[-4.4475511,43.0585396],[-4.4318651,43.0456887],[-4.3981161,43.034868],[-4.389168,43.0257376],[-4.3861884,43.0160393],[-4.3743572,43.0060694],[-4.3724507,42.994827],[-4.3484849,42.9725812],[-4.3019072,42.9666099],[-4.2907176,42.9692131],[-4.2622254,42.9652713],[-4.2402491,42.9565335],[-4.2378287,42.9525974],[-4.2391717,42.9315111],[-4.2367027,42.9171115],[-4.2225653,42.9109776],[-4.2309103,42.9030718],[-4.2234849,42.8750368],[-4.2257,42.8588843],[-4.2142339,42.8471731],[-4.1996935,42.8445706],[-4.181202,42.8586941],[-4.167619,42.8595447],[-4.1499013,42.8711336],[-4.1442598,42.8686145],[-4.1489937,42.8657575],[-4.1452558,42.8622198],[-4.1261196,42.8566369],[-4.128477,42.8462666],[-4.1370284,42.839428],[-4.1406827,42.829104],[-4.1454421,42.8288999],[-4.1580672,42.8374822],[-4.1652421,42.8285324],[-4.1787269,42.8261255],[-4.1854295,42.8172971],[-4.1827037,42.8103458],[-4.1736561,42.8085747],[-4.1499147,42.7893091],[-4.1226714,42.7945955],[-4.10517,42.7930273],[-4.0984857,42.7911824],[-4.0997141,42.7845964],[-4.0940751,42.7733211],[-4.0853643,42.7721791],[-4.0813396,42.7614641],[-4.0546875,42.7630274],[-4.0459117,42.7666111],[-4.0502167,42.7798013],[-4.0460996,42.7857827],[-4.037833,42.790802],[-4.0335695,42.7866079],[-4.0298692,42.7883433],[-4.0329201,42.8012569],[-4.0222642,42.806945],[-4.0141829,42.8063774],[-4.0207799,42.8193499],[-4.0110385,42.8303781],[-4.0035551,42.8314075],[-3.9965137,42.798959],[-3.9996518,42.7689788],[-3.9879434,42.7705936],[-3.9815879,42.7683068],[-3.9788847,42.7580813],[-3.9656942,42.7585987],[-3.9565474,42.7622148],[-3.946582,42.7619102],[-3.9487938,42.7675026],[-3.9305886,42.7744871],[-3.9264774,42.7701255],[-3.9109527,42.7683857],[-3.9096645,42.7864431],[-3.9004746,42.7892803],[-3.8944461,42.8045377],[-3.862043,42.7865224],[-3.8232767,42.7988564],[-3.8160319,42.8105612],[-3.8196726,42.8278437],[-3.8165122,42.8359261],[-3.8337757,42.8521737],[-3.8253535,42.8686333],[-3.8347878,42.8773632],[-3.8637358,42.8898104],[-3.8740487,42.8751168],[-3.8709768,42.8743387],[-3.8738685,42.8631952],[-3.8685014,42.856698],[-3.8798211,42.8513257],[-3.8877941,42.8568296],[-3.8964405,42.8563031],[-3.899235,42.8599374],[-3.9148321,42.8600843],[-3.9147487,42.8660555],[-3.9035461,42.8718626],[-3.8974728,42.8802851],[-3.9025117,42.8849194],[-3.9243488,42.8892211],[-3.9103299,42.8919627],[-3.9027762,42.8862681],[-3.8929338,42.8873627],[-3.8986439,42.9036445],[-3.9105839,42.9109256],[-3.9078189,42.9145226],[-3.8913678,42.9028097],[-3.8832675,42.9042862],[-3.8686051,42.899076],[-3.8589801,42.9036781],[-3.8520852,42.9189483],[-3.833546,42.9179858],[-3.8299267,42.9276926],[-3.840542,42.9405467],[-3.8670945,42.9548294],[-3.8701364,42.9497004],[-3.8873833,42.9487669],[-3.8912774,42.9254855],[-3.91149,42.9233906],[-3.91821,42.9162949],[-3.92342,42.9156678],[-3.9263518,42.9044327],[-3.9335431,42.8996017],[-3.9376026,42.9048096],[-3.9296417,42.914699],[-3.9434158,42.9092825],[-3.9737161,42.9119199],[-3.9909782,42.931088],[-3.9716661,42.9749099],[-3.9529968,43.0001005],[-3.9454648,43.005773],[-3.9092614,43.0160974],[-3.8907461,43.0418257],[-3.86692,43.0438273],[-3.8558079,43.0393272],[-3.849866,43.0402179],[-3.8497576,43.0483952],[-3.8345035,43.0580613],[-3.831769,43.0638263],[-3.8460157,43.0709982],[-3.8507176,43.0770507],[-3.8469614,43.0843995],[-3.8357539,43.0805555],[-3.8232606,43.0805828],[-3.8102079,43.0866549],[-3.7902811,43.0781312],[-3.775804,43.0825343],[-3.7645689,43.0810338],[-3.7570137,43.085046],[-3.759816,43.0921144],[-3.7548816,43.1005485],[-3.7291209,43.104443],[-3.7192487,43.1083503],[-3.7142749,43.1139824],[-3.7046767,43.1162749],[-3.7038855,43.1234117],[-3.695863,43.126045],[-3.6837806,43.1362571],[-3.6849484,43.1406445],[-3.6765048,43.1511312],[-3.6766221,43.1550837],[-3.6679535,43.1576197],[-3.6667554,43.1628405],[-3.6552437,43.1711312],[-3.6581605,43.1776396],[-3.6510175,43.1810398],[-3.631998,43.1730774],[-3.6228644,43.1738747],[-3.6124489,43.1695184],[-3.6035435,43.1496375],[-3.5855841,43.154503],[-3.5437082,43.148162],[-3.4925784,43.1338226],[-3.469128,43.1367575],[-3.444756,43.1315327],[-3.4176076,43.1333163],[-3.4219456,43.1522408],[-3.4334518,43.1710449],[-3.43576,43.1980939],[-3.4330452,43.206398],[-3.444292,43.221136],[-3.450912,43.2362448],[-3.4374488,43.2347756],[-3.4303696,43.2420962],[-3.4184394,43.2410687],[-3.4105476,43.2470672],[-3.4134616,43.2499022],[-3.4066299,43.250683],[-3.398904,43.2457747],[-3.3917939,43.2523105],[-3.3897532,43.2638997],[-3.3831016,43.2703653],[-3.3678542,43.2746592],[-3.359791,43.2719084],[-3.3385913,43.2780633],[-3.343126,43.2942825],[-3.3333454,43.3021015],[-3.3243837,43.2954457],[-3.3231733,43.2911444],[-3.3138674,43.2969586],[-3.294251,43.299327],[-3.2910141,43.2959491],[-3.2935254,43.2929321],[-3.2898224,43.2898361],[-3.2695862,43.2921],[-3.2661428,43.2963194],[-3.2574628,43.2920792],[-3.2094502,43.2836049],[-3.2049078,43.2904855],[-3.1932089,43.2984509],[-3.1575622,43.3011506],[-3.1514133,43.3061403],[-3.1496659,43.3194155],[-3.1544734,43.3409743],[-3.1504269,43.3487437],[-3.1528071,43.353264],[-3.1614565,43.3508901],[-3.1692587,43.3549588],[-3.171191,43.358735],[-3.1798818,43.3577185],[-3.1858502,43.3657328],[-3.1941747,43.3632375],[-3.1952588,43.3714506],[-3.2074285,43.3763939],[-3.2119811,43.3745245],[-3.2113874,43.3790555],[-3.2138213,43.3771156],[-3.2178203,43.383237],[-3.2088965,43.3811482],[-3.2173881,43.3864178],[-3.2245557,43.3854558],[-3.2261972,43.3890969],[-3.2213451,43.3911553],[-3.2216234,43.3938294],[-3.2282034,43.3964507],[-3.2467925,43.3985354],[-3.2573842,43.403],[-3.282852,43.4032604],[-3.3044909,43.4096673],[-3.3111539,43.4096002],[-3.310586,43.4058438],[-3.313745,43.406175],[-3.3124988,43.4036352],[-3.3191518,43.3989356],[-3.3261094,43.4032435],[-3.3269115,43.4145759],[-3.3227945,43.4178292],[-3.3237448,43.4191295],[-3.3263389,43.4157004],[-3.3337738,43.4162985],[-3.3366644,43.4124904],[-3.3432351,43.4161805],[-3.3610233,43.4117162],[-3.3706573,43.4130483],[-3.3716869,43.4168569],[-3.410729,43.4157239],[-3.4110952,43.4190188],[-3.4167256,43.4203859],[-3.4191442,43.4197271],[-3.4199699,43.4185065],[-3.4148228,43.4198475],[-3.4181021,43.4184979],[-3.414114,43.413297],[-3.4173522,43.4146004],[-3.4199554,43.4152077],[-3.4195718,43.4169531],[-3.4180154,43.417889],[-3.4182996,43.4181188],[-3.4197919,43.4170977],[-3.4202548,43.4152389],[-3.4181914,43.4146035],[-3.4200265,43.4128856],[-3.4293016,43.412869],[-3.4426255,43.4227214],[-3.4514726,43.4356169],[-3.4503296,43.4393745],[-3.4384774,43.4371277],[-3.4259758,43.4442192],[-3.4263969,43.4553311],[-3.4330429,43.4634189],[-3.4477687,43.4668925],[-3.4733601,43.4662992],[-3.4765568,43.4695322],[-3.4983015,43.4716732],[-3.5148435,43.4784078],[-3.5154243,43.4879634],[-3.5130568,43.492035],[-3.5172566,43.4942943],[-3.5321695,43.4918182],[-3.5346557,43.4939401],[-3.5378686,43.4923216],[-3.5412444,43.4943271],[-3.5422767,43.4977063],[-3.5399251,43.4975002],[-3.5407906,43.5037091],[-3.5456159,43.5045263],[-3.5463682,43.5076759],[-3.5641093,43.5097715],[-3.5804661,43.5045411],[-3.5829773,43.5101297],[-3.5802897,43.5123946],[-3.5894112,43.5137067],[-3.6034191,43.5088766],[-3.6135696,43.4957769],[-3.6160084,43.5009245],[-3.6183584,43.4976795],[-3.6223557,43.4999223],[-3.6302247,43.4966041],[-3.6448267,43.4987021],[-3.676731,43.4819616],[-3.6701626,43.4793002],[-3.6789841,43.4810246],[-3.6904391,43.4748575],[-3.6959799,43.4773504],[-3.6947365,43.4800412],[-3.7056887,43.4795939],[-3.7235744,43.4734278],[-3.7269815,43.4701478],[-3.7276191,43.4626506],[-3.7341059,43.4586451],[-3.754712,43.4559879],[-3.7706276,43.458717],[-3.7772104,43.4582072],[-3.7459383,43.4512627],[-3.7652328,43.4462859],[-3.7691923,43.4490655],[-3.7761053,43.4494087],[-3.770592,43.445582],[-3.7735379,43.4396034],[-3.784592,43.4316915],[-3.7912014,43.4323186],[-3.7794024,43.4242095],[-3.7792528,43.4208104],[-3.7924363,43.4198026],[-3.7918534,43.4181837],[-3.7992469,43.4142382],[-3.8071057,43.4174616],[-3.8039628,43.4132025],[-3.8138332,43.4044745],[-3.8081479,43.3964968],[-3.7973163,43.4011135],[-3.7885223,43.3986424],[-3.8097574,43.3947411],[-3.8212412,43.4120712],[-3.828943,43.4081181],[-3.8271199,43.4129182],[-3.8142838,43.4154247],[-3.8039412,43.4262666],[-3.8046307,43.429083],[-3.806583,43.4305718],[-3.8090624,43.430718],[-3.810878,43.4296986],[-3.8050737,43.4287177],[-3.8063332,43.4267413],[-3.8140072,43.4285547],[-3.8117522,43.4317007],[-3.8274778,43.4324682],[-3.8307037,43.4351006],[-3.8274686,43.4375727],[-3.8153858,43.4370429],[-3.8156691,43.4417655],[-3.8277127,43.4425121],[-3.8244216,43.4455193],[-3.8148598,43.4448388],[-3.8144335,43.4480241],[-3.8237614,43.4485974],[-3.825358,43.4516975],[-3.8195173,43.4533624],[-3.8209925,43.4497356],[-3.8143504,43.4495002],[-3.8017749,43.4614967],[-3.7632476,43.4672063],[-3.7665648,43.4711776],[-3.7751371,43.4693596],[-3.786021,43.4769464],[-3.788262,43.4801723],[-3.7783669,43.4856055],[-3.7873126,43.4855471],[-3.7851846,43.4917748],[-3.8117388,43.4948754],[-3.8260101,43.490391],[-3.840229,43.476994],[-3.8376851,43.4798349],[-3.8425586,43.4839326],[-3.8620901,43.4756524],[-3.8803372,43.4772418],[-3.8911438,43.4720698],[-3.8926999,43.4745107],[-3.891043,43.4752761],[-3.8926371,43.4771432],[-3.9107875,43.472732],[-3.9146828,43.4758131],[-3.9323586,43.471194],[-3.9304315,43.4695219],[-3.9332714,43.4678536],[-3.9362927,43.4700472],[-3.9431474,43.4693729],[-3.9434419,43.4705584],[-3.945448,43.4711722],[-3.9576174,43.4553998],[-3.9810226,43.4414997],[-3.9850237,43.4462872],[-4.0010672,43.4396258],[-4.0141558,43.4479311],[-4.0211755,43.4489751],[-4.0236421,43.4413381],[-4.034072,43.4404024],[-4.0307266,43.4371109],[-4.0329031,43.4352604],[-4.036298,43.4391405],[-4.0341293,43.4350588],[-4.0437326,43.4364919],[-4.0419541,43.4419292],[-4.046196,43.4450511],[-4.0482097,43.4369806],[-4.0584401,43.433062],[-4.0774146,43.4307706],[-4.0819651,43.4337863],[-4.081341,43.4382634],[-4.093048,43.4328239],[-4.0938375,43.4276311],[-4.098357,43.4242273],[-4.1007161,43.425729],[-4.1113698,43.4189103],[-4.1331311,43.4145164],[-4.1346779,43.4113914],[-4.1371011,43.4136057],[-4.1517031,43.4118717],[-4.1753763,43.4008586],[-4.1806911,43.4054579],[-4.2002573,43.398954],[-4.2092496,43.4010498],[-4.2204065,43.3950608],[-4.2332131,43.4003254],[-4.2486132,43.395665],[-4.2616372,43.3957251],[-4.264784,43.391284],[-4.2717319,43.3933],[-4.2727286,43.3896809],[-4.2809663,43.3872232],[-4.2927054,43.3941433],[-4.2960508,43.390585],[-4.3275701,43.39125],[-4.3374385,43.3964424],[-4.3399027,43.4058932],[-4.3563328,43.402981],[-4.3585915,43.399026],[-4.3782702,43.3916085],[-4.3852487,43.3920248],[-4.3851119,43.3952699],[-4.3904175,43.3929377],[-4.3972463,43.3940375],[-4.3974514,43.3969062],[-4.4151798,43.398361],[-4.4312289,43.3970127],[-4.4316474,43.3935257],[-4.4364538,43.3971924],[-4.4391409,43.3937374],[-4.4413909,43.3937053],[-4.4394329,43.3958896],[-4.4435101,43.397763],[-4.4456998,43.3951407],[-4.4480412,43.3964153],[-4.4504185,43.3938338],[-4.4536289,43.3949566],[-4.4537126,43.3921655],[-4.4592558,43.3939599],[-4.4593623,43.3911489],[-4.4650341,43.3925596],[-4.4716962,43.3891316],[-4.4724576,43.3944337],[-4.4876335,43.3929783],[-4.4903182,43.3936736],[-4.4912786,43.3971959],[-4.4921663,43.3969289],[-4.4936844,43.3969854],[-4.4953339,43.3975895],[-4.4949021,43.3969269],[-4.5011759,43.3951338],[-4.5093216,43.3931556],[-4.5095791,43.39314],[-4.5103301,43.3932433],[-4.511014,43.3935024],[-4.5117378,43.3931703],[-4.5124017,43.3933405],[-4.5112886,43.3792364],[-4.5225482,43.3699026],[-4.5209117,43.3661515],[-4.5348085,43.3677787],[-4.5308102,43.3587889],[-4.5388087,43.3559262],[-4.53411,43.3530989],[-4.5367894,43.3443646],[-4.5394565,43.3439596],[-4.5223495,43.3357784],[-4.52703,43.327612],[-4.5201697,43.3146559],[-4.5185712,43.2940388],[-4.523513,43.2781701],[-4.5326724,43.2753194],[-4.5377221,43.2693266],[-4.5477735,43.2686868],[-4.5527852,43.2719416],[-4.5516968,43.2866931],[-4.5695141,43.2918474],[-4.5802666,43.2895923],[-4.598681,43.2985775],[-4.6075646,43.2986331],[-4.6075954,43.2952354],[-4.6239072,43.2883687],[-4.6267483,43.281656],[-4.6365859,43.2757617],[-4.6362066,43.2708056],[-4.6318833,43.2676528],[-4.6502503,43.2688209],[-4.6599413,43.2644936],[-4.6811417,43.2678937],[-4.6933915,43.2639491],[-4.7060409,43.2668676],[-4.7116176,43.2609674],[-4.7309447,43.2573358],[-4.7227951,43.2416191],[-4.7249189,43.2370614],[-4.7210105,43.2295085],[-4.7307831,43.2232059],[-4.7277587,43.2167852],[-4.7364659,43.2069392],[-4.7375956,43.1968711],[-4.7331938,43.1934078],[-4.738032,43.1863642],[-4.7542746,43.184],[-4.7789942,43.1920817],[-4.7867173,43.1857755],[-4.8106054,43.1811862],[-4.8165742,43.1832973],[-4.8233157,43.1783284],[-4.8424931,43.1805582],[-4.8517354,43.1728722]],[[-4.1829812,42.8204951],[-4.1769646,42.8235639],[-4.1665041,42.8217646],[-4.1615889,42.8203314],[-4.1604185,42.8151769],[-4.1752067,42.8118112],[-4.1829812,42.8204951]],[[-4.1132244,42.8162129],[-4.1126335,42.8222152],[-4.1072999,42.8277016],[-4.0919273,42.8210926],[-4.0888706,42.8185345],[-4.0900321,42.7992747],[-4.1015719,42.7937349],[-4.1093539,42.8030595],[-4.1058166,42.8083888],[-4.1132244,42.8162129]]],[[[-4.5117642,43.3933702],[-4.5117598,43.3933213],[-4.5117435,43.3933426],[-4.5117642,43.3933702]]],[[[-4.5098043,43.3932354],[-4.5098152,43.3931848],[-4.5097346,43.3931964],[-4.5098043,43.3932354]]],[[[-4.5082058,43.394019],[-4.5081789,43.3939604],[-4.5081386,43.393976],[-4.5082058,43.394019]]],[[[-4.507664,43.3941184],[-4.5076989,43.3940814],[-4.5076318,43.394095],[-4.507664,43.3941184]]],[[[-4.5061995,43.3949662],[-4.5061942,43.3948941],[-4.5061459,43.3948785],[-4.5061995,43.3949662]]],[[[-4.4997939,43.3974112],[-4.5004974,43.3961026],[-4.4991644,43.3963189],[-4.4997939,43.3974112]]],[[[-4.5013262,43.3952138],[-4.5012403,43.3951904],[-4.5011947,43.395167],[-4.501251,43.3952157],[-4.5013262,43.3952138]]],[[[-4.500298,43.3957658],[-4.500272,43.3957479],[-4.500263,43.395762],[-4.500298,43.3957658]]],[[[-4.4999796,43.3958395],[-4.4999447,43.395818],[-4.4999367,43.3958317],[-4.4999796,43.3958395]]],[[[-4.4996282,43.3961454],[-4.4996427,43.3961069],[-4.4995934,43.396124],[-4.4996282,43.3961454]]],[[[-4.4992313,43.3962253],[-4.4992339,43.3961961],[-4.4992071,43.3962098],[-4.4992313,43.3962253]]],[[[-4.4990972,43.3959973],[-4.4989952,43.3959759],[-4.4989818,43.3959876],[-4.4990972,43.3959973]]],[[[-4.4952106,43.3978078],[-4.4951328,43.3976752],[-4.4948978,43.3976956],[-4.4952106,43.3978078]]],[[[-4.494533,43.3977248],[-4.4947315,43.3976995],[-4.4945062,43.3976703],[-4.494533,43.3977248]]],[[[-4.4945642,43.3975019],[-4.4945706,43.3974656],[-4.494533,43.3974656],[-4.4945642,43.3975019]]],[[[-4.4936629,43.3970673],[-4.4936307,43.3970439],[-4.49362,43.3970731],[-4.4936629,43.3970673]]],[[[-4.492354,43.396964],[-4.4922934,43.3969453],[-4.4923068,43.3969784],[-4.492354,43.396964]]],[[[-4.4907851,43.3961006],[-4.4907502,43.3960655],[-4.4907448,43.3960947],[-4.4907851,43.3961006]]],[[[-4.4906456,43.3958316],[-4.4907314,43.3957946],[-4.4906438,43.395809],[-4.4906456,43.3958316]]],[[[-4.4884569,43.3935143],[-4.4883791,43.393487],[-4.4884059,43.393526],[-4.4884569,43.3935143]]],[[[-4.4882772,43.3935825],[-4.4882128,43.3935396],[-4.4881833,43.3935766],[-4.4882772,43.3935825]]],[[[-4.4882325,43.3936417],[-4.4882048,43.3935942],[-4.4881118,43.3936417],[-4.4882325,43.3936417]]],[[[-4.4882316,43.3936877],[-4.4882209,43.3936624],[-4.4881011,43.3936827],[-4.4882316,43.3936877]]],[[[-4.4853804,43.395206],[-4.485376,43.3951737],[-4.4853563,43.3951826],[-4.4853804,43.395206]]],[[[-4.4853241,43.3952353],[-4.4853009,43.3951893],[-4.4852704,43.3951885],[-4.4853241,43.3952353]]],[[[-4.4852704,43.3952353],[-4.4852436,43.3951924],[-4.4852436,43.3952411],[-4.4852704,43.3952353]]],[[[-4.4849754,43.3956562],[-4.4849271,43.3956056],[-4.4848288,43.395618],[-4.4849754,43.3956562]]],[[[-4.485139,43.3956465],[-4.4851444,43.3955978],[-4.4851024,43.3956278],[-4.485139,43.3956465]]],[[[-4.4850719,43.3965488],[-4.4851265,43.3964483],[-4.4850666,43.3964417],[-4.4850719,43.3965488]]],[[[-4.4850371,43.3958862],[-4.4850183,43.3958297],[-4.48497,43.3958745],[-4.4850371,43.3958862]]],[[[-4.4850183,43.3954886],[-4.4848905,43.3954368],[-4.4848905,43.395468],[-4.4850183,43.3954886]]],[[[-4.4843612,43.3963949],[-4.4849727,43.3964475],[-4.4846616,43.3962721],[-4.4843612,43.3963949]]],[[[-4.4848547,43.3955958],[-4.484852,43.3954886],[-4.4847752,43.3955654],[-4.4848547,43.3955958]]],[[[-4.4848171,43.3952333],[-4.4845543,43.3951924],[-4.4848037,43.3952586],[-4.4848171,43.3952333]]],[[[-4.4847823,43.3955062],[-4.4837897,43.3952484],[-4.4821409,43.3960462],[-4.4837121,43.3959174],[-4.4828296,43.3963618],[-4.4833231,43.3963676],[-4.4847823,43.3955062]]],[[[-4.4847045,43.3967087],[-4.4846723,43.3965566],[-4.4845364,43.3966081],[-4.4847045,43.3967087]]],[[[-4.4844524,43.3962877],[-4.4843504,43.3962701],[-4.4843585,43.3962994],[-4.4844524,43.3962877]]],[[[-4.4842968,43.3962682],[-4.484396,43.3961025],[-4.4842244,43.3962292],[-4.4839535,43.3962818],[-4.4842968,43.3962682]]],[[[-4.4842217,43.3968412],[-4.4844211,43.3967582],[-4.4841305,43.3967886],[-4.4842217,43.3968412]]],[[[-4.4840527,43.3966171],[-4.4837479,43.3965204],[-4.4834716,43.3966217],[-4.4840527,43.3966171]]],[[[-4.4841707,43.3962175],[-4.4842226,43.3961189],[-4.483767,43.396241],[-4.4841707,43.3962175]]],[[[-4.4841117,43.3951339],[-4.4840473,43.39513],[-4.484042,43.3951475],[-4.4841117,43.3951339]]],[[[-4.4831112,43.3952742],[-4.4830978,43.3952352],[-4.4830621,43.3952609],[-4.4831112,43.3952742]]],[[[-4.4828886,43.3961824],[-4.4828028,43.3961552],[-4.4828028,43.3961785],[-4.4828886,43.3961824]]],[[[-4.4825479,43.3954788],[-4.4826395,43.3953892],[-4.4825135,43.3954418],[-4.4825479,43.3954788]]],[[[-4.4824728,43.3955821],[-4.4826257,43.3955178],[-4.4824652,43.3955471],[-4.4824728,43.3955821]]],[[[-4.4824223,43.39551],[-4.4823763,43.3954964],[-4.4823682,43.3955178],[-4.4824223,43.39551]]],[[[-4.4823686,43.3956426],[-4.4822663,43.3955763],[-4.4822475,43.3956854],[-4.4823686,43.3956426]]],[[[-4.4822529,43.3963384],[-4.48227,43.396306],[-4.4822137,43.3963216],[-4.4822529,43.3963384]]],[[[-4.482159,43.3956874],[-4.4821755,43.3956309],[-4.4821375,43.3956504],[-4.482159,43.3956874]]],[[[-4.4820732,43.3960285],[-4.4820222,43.396007],[-4.4819663,43.396046],[-4.4820732,43.3960285]]],[[[-4.4805179,43.3949253],[-4.4806356,43.3948513],[-4.480531,43.394824],[-4.4805179,43.3949253]]],[[[-4.4787581,43.3949858],[-4.4787206,43.3949488],[-4.4786776,43.394978],[-4.4787581,43.3949858]]],[[[-4.4785964,43.3948678],[-4.4785704,43.3948143],[-4.4785301,43.3948591],[-4.4785964,43.3948678]]],[[[-4.4785274,43.3950423],[-4.4785221,43.3949994],[-4.4784979,43.3950306],[-4.4785274,43.3950423]]],[[[-4.478109,43.3949195],[-4.4780795,43.3948786],[-4.4779797,43.3949516],[-4.478109,43.3949195]]],[[[-4.4766223,43.3956396],[-4.4766228,43.3955571],[-4.4765552,43.3955967],[-4.4766223,43.3956396]]],[[[-4.4753125,43.395953],[-4.4756922,43.3956874],[-4.4757512,43.3956075],[-4.4756252,43.3955607],[-4.4753125,43.395953]]],[[[-4.4757485,43.3956757],[-4.475778,43.3956192],[-4.4757217,43.3956777],[-4.4757485,43.3956757]]],[[[-4.4753589,43.3962126],[-4.4754314,43.3961327],[-4.4752981,43.3961825],[-4.4753589,43.3962126]]],[[[-4.464967,43.3938071],[-4.465052,43.3937842],[-4.4650239,43.3937243],[-4.464967,43.3938071]]],[[[-4.4648096,43.3938436],[-4.4646522,43.3936392],[-4.4646255,43.3938217],[-4.4648096,43.3938436]]],[[[-4.4642304,43.3939725],[-4.4643605,43.3937318],[-4.4641276,43.3937416],[-4.4642304,43.3939725]]],[[[-4.452868,43.3947967],[-4.4529807,43.3947431],[-4.4528653,43.394709],[-4.452868,43.3947967]]],[[[-4.437401,43.3962369],[-4.4375312,43.3960561],[-4.4373193,43.3961711],[-4.437401,43.3962369]]],[[[-4.0223419,43.453069],[-4.0246702,43.4526039],[-4.0209593,43.4526969],[-4.0223419,43.453069]]],[[[-4.02144,43.4512019],[-4.0220369,43.450472],[-4.0207488,43.4505948],[-4.02144,43.4512019]]],[[[-4.016079,43.4524272],[-4.015918,43.4520724],[-4.0155382,43.4523161],[-4.016079,43.4524272]]],[[[-4.0160568,43.453175],[-4.0159553,43.4525881],[-4.0153822,43.4527213],[-4.0160568,43.453175]]],[[[-4.0134096,43.4529305],[-4.0132325,43.4522609],[-4.0129522,43.4528877],[-4.0134096,43.4529305]]],[[[-3.9424746,43.4708764],[-3.9425926,43.4703338],[-3.941977,43.470475],[-3.9424746,43.4708764]]],[[[-3.9328722,43.4730876],[-3.9335696,43.4726749],[-3.9329113,43.4727505],[-3.9328722,43.4730876]]],[[[-3.9323602,43.4733891],[-3.9322083,43.472929],[-3.9318688,43.4733098],[-3.9323602,43.4733891]]],[[[-3.925827,43.474327],[-3.9262079,43.4738538],[-3.9256395,43.4740693],[-3.925827,43.474327]]],[[[-3.9090005,43.4773074],[-3.9085657,43.4756191],[-3.9062603,43.4777441],[-3.9090005,43.4773074]]],[[[-3.8920242,43.4742424],[-3.8920564,43.4739235],[-3.8917199,43.474173],[-3.8920242,43.4742424]]],[[[-3.8915644,43.474352],[-3.8915469,43.4742117],[-3.891422,43.4743497],[-3.8915644,43.474352]]],[[[-3.8786501,43.4803572],[-3.8767219,43.4774941],[-3.8752231,43.4804118],[-3.8786501,43.4803572]]],[[[-3.7971691,43.4165546],[-3.7971091,43.4163655],[-3.7969911,43.4163936],[-3.7971691,43.4165546]]],[[[-3.7969099,43.4337383],[-3.7968542,43.4335062],[-3.7966853,43.4337501],[-3.7969099,43.4337383]]],[[[-3.7947681,43.4185949],[-3.7944202,43.4180804],[-3.7940006,43.4182753],[-3.7947681,43.4185949]]],[[[-3.7943777,43.4177007],[-3.7947809,43.4173132],[-3.7942175,43.4173714],[-3.7943777,43.4177007]]],[[[-3.7936165,43.41837],[-3.7933911,43.4180062],[-3.7932684,43.4182354],[-3.7936165,43.41837]]],[[[-3.7922236,43.4303307],[-3.7918807,43.4299034],[-3.7913846,43.4299641],[-3.7922236,43.4303307]]],[[[-3.7318245,43.4722819],[-3.7318192,43.4722254],[-3.7317791,43.4722665],[-3.7318245,43.4722819]]],[[[-3.7289583,43.4766615],[-3.7307807,43.4699614],[-3.7274622,43.4711784],[-3.7285805,43.4713317],[-3.728991,43.4721932],[-3.7289583,43.4766615]]],[[[-3.7316495,43.4719441],[-3.7317269,43.4718962],[-3.7316364,43.4719362],[-3.7316495,43.4719441]]],[[[-3.7316163,43.4742544],[-3.7315911,43.4742526],[-3.7316289,43.4743132],[-3.7316163,43.4742544]]],[[[-3.7315832,43.4715094],[-3.7315799,43.4714608],[-3.7315486,43.4714732],[-3.7315832,43.4715094]]],[[[-3.7314905,43.4715909],[-3.7315996,43.4715488],[-3.7315518,43.4715262],[-3.7314905,43.4715909]]],[[[-3.7311218,43.470349],[-3.731121,43.4701748],[-3.7310413,43.4703782],[-3.7311218,43.470349]]],[[[-3.7298749,43.4764953],[-3.7297849,43.4764915],[-3.7298151,43.4765334],[-3.7298749,43.4764953]]],[[[-3.7284814,43.476392],[-3.7287615,43.4762779],[-3.7286633,43.4762844],[-3.7284814,43.476392]]],[[[-3.728598,43.4764888],[-3.7286285,43.4764259],[-3.7285694,43.4764694],[-3.728598,43.4764888]]],[[[-3.7284033,43.4717355],[-3.728457,43.4715665],[-3.7282008,43.471744],[-3.7284033,43.4717355]]],[[[-3.7283934,43.4762255],[-3.7283598,43.4761882],[-3.7283341,43.4762291],[-3.7283934,43.4762255]]],[[[-3.7284205,43.4714098],[-3.7283752,43.4714021],[-3.7283027,43.4714547],[-3.7284205,43.4714098]]],[[[-3.727481,43.4746991],[-3.7274722,43.4742887],[-3.7273794,43.4743048],[-3.727481,43.4746991]]],[[[-3.5406099,43.4951505],[-3.540553,43.4946182],[-3.5401643,43.4949439],[-3.5406099,43.4951505]]],[[[-3.5400086,43.494814],[-3.5401458,43.4940511],[-3.5396603,43.4944941],[-3.5400086,43.494814]]],[[[-3.5309572,43.4931491],[-3.5309464,43.492756],[-3.5308043,43.492793],[-3.5309572,43.4931491]]],[[[-3.5281572,43.4968651],[-3.5277187,43.4952328],[-3.5267576,43.4961511],[-3.5281572,43.4968651]]],[[[-3.5255682,43.4958729],[-3.5259836,43.4951372],[-3.5248307,43.4951019],[-3.5255682,43.4958729]]],[[[-3.5249578,43.4969337],[-3.5250087,43.4965238],[-3.5247325,43.4966286],[-3.5249578,43.4969337]]],[[[-3.524801,43.4942151],[-3.5247271,43.4939683],[-3.524659,43.4941122],[-3.524801,43.4942151]]],[[[-3.5247948,43.4981536],[-3.5247653,43.4979084],[-3.5245775,43.4980757],[-3.5247948,43.4981536]]],[[[-3.5232,43.4956451],[-3.5232272,43.4946275],[-3.5226468,43.4950983],[-3.5232,43.4956451]]],[[[-3.5231701,43.4943852],[-3.5230279,43.4942135],[-3.5228958,43.4942475],[-3.5231701,43.4943852]]],[[[-3.5139929,43.4866395],[-3.5138753,43.4864755],[-3.5138031,43.4866939],[-3.5139929,43.4866395]]],[[[-3.4104113,43.4184625],[-3.410089,43.4180315],[-3.4101815,43.4185487],[-3.4104113,43.4184625]]],[[[-3.4086806,43.4172009],[-3.4088721,43.4169056],[-3.4086275,43.4168793],[-3.4086806,43.4172009]]],[[[-3.3057485,43.2533586],[-3.2925886,43.2408275],[-3.29727,43.2221434],[-3.2929625,43.2162757],[-3.2973063,43.2065027],[-3.2848167,43.1971702],[-3.267251,43.2039979],[-3.2657708,43.206926],[-3.2716942,43.218227],[-3.2663592,43.2228462],[-3.2697736,43.2320499],[-3.2520163,43.2461191],[-3.2491749,43.259649],[-3.2673825,43.2674466],[-3.278935,43.2619314],[-3.3045334,43.2582558],[-3.3057485,43.2533586]]],[[[-3.1682274,43.3561355],[-3.1683203,43.3560032],[-3.1681483,43.3560808],[-3.1682274,43.3561355]]]]},"properties":{"province":"Cantabria"}}]}